CCSDS_OMM_VERS = 2.0
CREATION_DATE  = 
ORIGINATOR     = 

OBJECT_NAME    = STARLINK-36959
OBJECT_ID      = 2026-041W
CENTER_NAME    = EARTH
REF_FRAME      = TEME
TIME_SYSTEM    = UTC
MEAN_ELEMENT_THEORY = SGP/SGP4

EPOCH          = 2026-03-19T20:00:01.999872
MEAN_MOTION    = 15.75163283
ECCENTRICITY   = .00008151
INCLINATION    = 53.1599
RA_OF_ASC_NODE = 11.2535
ARG_OF_PERICENTER = 92.1360
MEAN_ANOMALY   = 256.8190

EPHEMERIS_TYPE = 0
CLASSIFICATION_TYPE = U
NORAD_CAT_ID   = 68060
ELEMENT_SET_NO = 999
REV_AT_EPOCH   = 400
BSTAR          = .10272707E-2
MEAN_MOTION_DOT = .159299E-2
MEAN_MOTION_DDOT = 0

CCSDS_OMM_VERS = 2.0
CREATION_DATE  = 
ORIGINATOR     = 

OBJECT_NAME    = STARLINK-36915
OBJECT_ID      = 2026-041X
CENTER_NAME    = EARTH
REF_FRAME      = TEME
TIME_SYSTEM    = UTC
MEAN_ELEMENT_THEORY = SGP/SGP4

EPOCH          = 2026-03-19T19:46:20.603712
MEAN_MOTION    = 15.81062518
ECCENTRICITY   = .00020471
INCLINATION    = 53.1594
RA_OF_ASC_NODE = 11.1684
ARG_OF_PERICENTER = 120.7577
MEAN_ANOMALY   = 239.3647

EPHEMERIS_TYPE = 0
CLASSIFICATION_TYPE = U
NORAD_CAT_ID   = 68061
ELEMENT_SET_NO = 999
REV_AT_EPOCH   = 282
BSTAR          = .20625989E-2
MEAN_MOTION_DOT = .431119E-2
MEAN_MOTION_DDOT = 0

CCSDS_OMM_VERS = 2.0
CREATION_DATE  = 
ORIGINATOR     = 

OBJECT_NAME    = STARLINK-36952
OBJECT_ID      = 2026-041Y
CENTER_NAME    = EARTH
REF_FRAME      = TEME
TIME_SYSTEM    = UTC
MEAN_ELEMENT_THEORY = SGP/SGP4

EPOCH          = 2026-03-19T21:40:17.605920
MEAN_MOTION    = 15.75270020
ECCENTRICITY   = .00011721
INCLINATION    = 53.1602
RA_OF_ASC_NODE = 10.9580
ARG_OF_PERICENTER = 118.1730
MEAN_ANOMALY   = 241.9409

EPHEMERIS_TYPE = 0
CLASSIFICATION_TYPE = U
NORAD_CAT_ID   = 68062
ELEMENT_SET_NO = 999
REV_AT_EPOCH   = 283
BSTAR          = .86261151E-3
MEAN_MOTION_DOT = .133881E-2
MEAN_MOTION_DDOT = 0

CCSDS_OMM_VERS = 2.0
CREATION_DATE  = 
ORIGINATOR     = 

OBJECT_NAME    = STARLINK-37000
OBJECT_ID      = 2026-041Z
CENTER_NAME    = EARTH
REF_FRAME      = TEME
TIME_SYSTEM    = UTC
MEAN_ELEMENT_THEORY = SGP/SGP4

EPOCH          = 2026-03-19T09:06:55.838880
MEAN_MOTION    = 15.80839388
ECCENTRICITY   = .00003875
INCLINATION    = 53.1597
RA_OF_ASC_NODE = 13.3751
ARG_OF_PERICENTER = 129.0929
MEAN_ANOMALY   = 231.0129

EPHEMERIS_TYPE = 0
CLASSIFICATION_TYPE = U
NORAD_CAT_ID   = 68063
ELEMENT_SET_NO = 999
REV_AT_EPOCH   = 275
BSTAR          = -.12107026E-3
MEAN_MOTION_DOT = -.24486E-3
MEAN_MOTION_DDOT = 0

CCSDS_OMM_VERS = 2.0
CREATION_DATE  = 
ORIGINATOR     = 

OBJECT_NAME    = STARLINK-36996
OBJECT_ID      = 2026-041AA
CENTER_NAME    = EARTH
REF_FRAME      = TEME
TIME_SYSTEM    = UTC
MEAN_ELEMENT_THEORY = SGP/SGP4

EPOCH          = 2026-03-19T21:14:08.194848
MEAN_MOTION    = 15.80907294
ECCENTRICITY   = .00011719
INCLINATION    = 53.1596
RA_OF_ASC_NODE = 10.8348
ARG_OF_PERICENTER = 91.6003
MEAN_ANOMALY   = 268.5154

EPHEMERIS_TYPE = 0
CLASSIFICATION_TYPE = U
NORAD_CAT_ID   = 68064
ELEMENT_SET_NO = 999
REV_AT_EPOCH   = 283
BSTAR          = .96446948E-3
MEAN_MOTION_DOT = .194305E-2
MEAN_MOTION_DDOT = 0

CCSDS_OMM_VERS = 2.0
CREATION_DATE  = 
ORIGINATOR     = 

OBJECT_NAME    = STARLINK-36836
OBJECT_ID      = 2026-041AB
CENTER_NAME    = EARTH
REF_FRAME      = TEME
TIME_SYSTEM    = UTC
MEAN_ELEMENT_THEORY = SGP/SGP4

EPOCH          = 2026-03-19T21:11:58.729632
MEAN_MOTION    = 15.80920430
ECCENTRICITY   = .00013031
INCLINATION    = 53.1595
RA_OF_ASC_NODE = 10.8252
ARG_OF_PERICENTER = 65.4538
MEAN_ANOMALY   = 294.6620

EPHEMERIS_TYPE = 0
CLASSIFICATION_TYPE = U
NORAD_CAT_ID   = 68065
ELEMENT_SET_NO = 999
REV_AT_EPOCH   = 283
BSTAR          = .99531195E-3
MEAN_MOTION_DOT = .200816E-2
MEAN_MOTION_DDOT = 0

CCSDS_OMM_VERS = 2.0
CREATION_DATE  = 
ORIGINATOR     = 

OBJECT_NAME    = STARLINK-36976
OBJECT_ID      = 2026-041AC
CENTER_NAME    = EARTH
REF_FRAME      = TEME
TIME_SYSTEM    = UTC
MEAN_ELEMENT_THEORY = SGP/SGP4

EPOCH          = 2026-03-19T20:00:01.999872
MEAN_MOTION    = 15.75194692
ECCENTRICITY   = .00011152
INCLINATION    = 53.1597
RA_OF_ASC_NODE = 11.2000
ARG_OF_PERICENTER = 105.5965
MEAN_ANOMALY   = 269.1080

EPHEMERIS_TYPE = 0
CLASSIFICATION_TYPE = U
NORAD_CAT_ID   = 68066
ELEMENT_SET_NO = 999
REV_AT_EPOCH   = 400
BSTAR          = .55775577E-3
MEAN_MOTION_DOT = .8556E-3
MEAN_MOTION_DDOT = 0

CCSDS_OMM_VERS = 2.0
CREATION_DATE  = 
ORIGINATOR     = 

OBJECT_NAME    = STARLINK-36929
OBJECT_ID      = 2026-041AD
CENTER_NAME    = EARTH
REF_FRAME      = TEME
TIME_SYSTEM    = UTC
MEAN_ELEMENT_THEORY = SGP/SGP4

EPOCH          = 2026-03-19T20:00:01.999872
MEAN_MOTION    = 15.75196753
ECCENTRICITY   = .00008794
INCLINATION    = 53.1600
RA_OF_ASC_NODE = 11.2494
ARG_OF_PERICENTER = 107.6187
MEAN_ANOMALY   = 243.1927

EPHEMERIS_TYPE = 0
CLASSIFICATION_TYPE = U
NORAD_CAT_ID   = 68067
ELEMENT_SET_NO = 999
REV_AT_EPOCH   = 400
BSTAR          = .60269184E-3
MEAN_MOTION_DOT = .9259E-3
MEAN_MOTION_DDOT = 0

CCSDS_OMM_VERS = 2.0
CREATION_DATE  = 
ORIGINATOR     = 

OBJECT_NAME    = STARLINK-36990
OBJECT_ID      = 2026-041AE
CENTER_NAME    = EARTH
REF_FRAME      = TEME
TIME_SYSTEM    = UTC
MEAN_ELEMENT_THEORY = SGP/SGP4

EPOCH          = 2026-03-19T21:09:49.009536
MEAN_MOTION    = 15.80925515
ECCENTRICITY   = .00008895
INCLINATION    = 53.1595
RA_OF_ASC_NODE = 10.8145
ARG_OF_PERICENTER = 99.9427
MEAN_ANOMALY   = 260.1697

EPHEMERIS_TYPE = 0
CLASSIFICATION_TYPE = U
NORAD_CAT_ID   = 68068
ELEMENT_SET_NO = 999
REV_AT_EPOCH   = 283
BSTAR          = .97164765E-3
MEAN_MOTION_DOT = .19596E-2
MEAN_MOTION_DDOT = 0

CCSDS_OMM_VERS = 2.0
CREATION_DATE  = 
ORIGINATOR     = 

OBJECT_NAME    = STARLINK-36766
OBJECT_ID      = 2026-042A
CENTER_NAME    = EARTH
REF_FRAME      = TEME
TIME_SYSTEM    = UTC
MEAN_ELEMENT_THEORY = SGP/SGP4

EPOCH          = 2026-03-19T20:00:01.999872
MEAN_MOTION    = 15.80899428
ECCENTRICITY   = .00012909
INCLINATION    = 53.1583
RA_OF_ASC_NODE = 143.9438
ARG_OF_PERICENTER = 81.3936
MEAN_ANOMALY   = 44.0650

EPHEMERIS_TYPE = 0
CLASSIFICATION_TYPE = U
NORAD_CAT_ID   = 68069
ELEMENT_SET_NO = 999
REV_AT_EPOCH   = 367
BSTAR          = -.26391102E-3
MEAN_MOTION_DOT = -.52535E-3
MEAN_MOTION_DDOT = 0

CCSDS_OMM_VERS = 2.0
CREATION_DATE  = 
ORIGINATOR     = 

OBJECT_NAME    = STARLINK-36823
OBJECT_ID      = 2026-042B
CENTER_NAME    = EARTH
REF_FRAME      = TEME
TIME_SYSTEM    = UTC
MEAN_ELEMENT_THEORY = SGP/SGP4

EPOCH          = 2026-03-19T20:00:01.999872
MEAN_MOTION    = 15.80932703
ECCENTRICITY   = .00013204
INCLINATION    = 53.1580
RA_OF_ASC_NODE = 143.9347
ARG_OF_PERICENTER = 102.2803
MEAN_ANOMALY   = 27.4442

EPHEMERIS_TYPE = 0
CLASSIFICATION_TYPE = U
NORAD_CAT_ID   = 68070
ELEMENT_SET_NO = 999
REV_AT_EPOCH   = 367
BSTAR          = -.63819788E-3
MEAN_MOTION_DOT = -.125199E-2
MEAN_MOTION_DDOT = 0

CCSDS_OMM_VERS = 2.0
CREATION_DATE  = 
ORIGINATOR     = 

OBJECT_NAME    = STARLINK-36970
OBJECT_ID      = 2026-042C
CENTER_NAME    = EARTH
REF_FRAME      = TEME
TIME_SYSTEM    = UTC
MEAN_ELEMENT_THEORY = SGP/SGP4

EPOCH          = 2026-03-19T20:00:01.999872
MEAN_MOTION    = 15.80901346
ECCENTRICITY   = .00012293
INCLINATION    = 53.1580
RA_OF_ASC_NODE = 143.9170
ARG_OF_PERICENTER = 89.5448
MEAN_ANOMALY   = 48.7292

EPHEMERIS_TYPE = 0
CLASSIFICATION_TYPE = U
NORAD_CAT_ID   = 68071
ELEMENT_SET_NO = 999
REV_AT_EPOCH   = 368
BSTAR          = -.20651718E-3
MEAN_MOTION_DOT = -.41318E-3
MEAN_MOTION_DDOT = 0

CCSDS_OMM_VERS = 2.0
CREATION_DATE  = 
ORIGINATOR     = 

OBJECT_NAME    = STARLINK-36972
OBJECT_ID      = 2026-042D
CENTER_NAME    = EARTH
REF_FRAME      = TEME
TIME_SYSTEM    = UTC
MEAN_ELEMENT_THEORY = SGP/SGP4

EPOCH          = 2026-03-19T20:00:01.999872
MEAN_MOTION    = 15.80898852
ECCENTRICITY   = .00011775
INCLINATION    = 53.1581
RA_OF_ASC_NODE = 143.9262
ARG_OF_PERICENTER = 81.7478
MEAN_ANOMALY   = 52.2538

EPHEMERIS_TYPE = 0
CLASSIFICATION_TYPE = U
NORAD_CAT_ID   = 68072
ELEMENT_SET_NO = 999
REV_AT_EPOCH   = 368
BSTAR          = -.2877169E-3
MEAN_MOTION_DOT = -.57178E-3
MEAN_MOTION_DDOT = 0

CCSDS_OMM_VERS = 2.0
CREATION_DATE  = 
ORIGINATOR     = 

OBJECT_NAME    = STARLINK-37074
OBJECT_ID      = 2026-042E
CENTER_NAME    = EARTH
REF_FRAME      = TEME
TIME_SYSTEM    = UTC
MEAN_ELEMENT_THEORY = SGP/SGP4

EPOCH          = 2026-03-19T20:00:01.999872
MEAN_MOTION    = 15.80757084
ECCENTRICITY   = .0001068
INCLINATION    = 53.1581
RA_OF_ASC_NODE = 143.9085
ARG_OF_PERICENTER = 56.6629
MEAN_ANOMALY   = 86.0365

EPHEMERIS_TYPE = 0
CLASSIFICATION_TYPE = U
NORAD_CAT_ID   = 68073
ELEMENT_SET_NO = 999
REV_AT_EPOCH   = 368
BSTAR          = .29523369E-3
MEAN_MOTION_DOT = .57649E-3
MEAN_MOTION_DDOT = 0

CCSDS_OMM_VERS = 2.0
CREATION_DATE  = 
ORIGINATOR     = 

OBJECT_NAME    = STARLINK-37045
OBJECT_ID      = 2026-042F
CENTER_NAME    = EARTH
REF_FRAME      = TEME
TIME_SYSTEM    = UTC
MEAN_ELEMENT_THEORY = SGP/SGP4

EPOCH          = 2026-03-19T20:00:01.999872
MEAN_MOTION    = 15.80923984
ECCENTRICITY   = .00011709
INCLINATION    = 53.1580
RA_OF_ASC_NODE = 143.8998
ARG_OF_PERICENTER = 93.8883
MEAN_ANOMALY   = 52.9218

EPHEMERIS_TYPE = 0
CLASSIFICATION_TYPE = U
NORAD_CAT_ID   = 68074
ELEMENT_SET_NO = 999
REV_AT_EPOCH   = 368
BSTAR          = -.45111192E-3
MEAN_MOTION_DOT = -.89031E-3
MEAN_MOTION_DDOT = 0

